{
    "links": {
        "self": "http://www.neowsapp.com/rest/v1/neo/3719996?api_key=iIulBulltgU6a56xZRHN4H3l9WmuAYTsLGpBGhQ2"
    },
    "id": "3719996",
    "neo_reference_id": "3719996",
    "name": "(2015 KM120)",
    "designation": "2015 KM120",
    "nasa_jpl_url": "http://ssd.jpl.nasa.gov/sbdb.cgi?sstr=3719996",
    "absolute_magnitude_h": 24.7,
    "estimated_diameter": {
        "kilometers": {
            "estimated_diameter_min": 0.0305179233,
            "estimated_diameter_max": 0.0682401509
        },
        "meters": {
            "estimated_diameter_min": 30.5179232594,
            "estimated_diameter_max": 68.2401509401
        },
        "miles": {
            "estimated_diameter_min": 0.0189629525,
            "estimated_diameter_max": 0.0424024508
        },
        "feet": {
            "estimated_diameter_min": 100.1244233463,
            "estimated_diameter_max": 223.8850168104
        }
    },
    "is_potentially_hazardous_asteroid": false,
    "close_approach_data": [
        {
            "close_approach_date": "1967-04-16",
            "close_approach_date_full": "1967-Apr-16 07:48",
            "epoch_date_close_approach": -85594320000,
            "relative_velocity": {
                "kilometers_per_second": "15.5660088886",
                "kilometers_per_hour": "56037.6319988279",
                "miles_per_hour": "34819.6052828272"
            },
            "miss_distance": {
                "astronomical": "0.2755813897",
                "lunar": "107.2011605933",
                "kilometers": "41226388.910759939",
                "miles": "25616890.1981635982"
            },
            "orbiting_body": "Earth"
        },
        {
            "close_approach_date": "2015-05-30",
            "close_approach_date_full": "2015-May-30 14:37",
            "epoch_date_close_approach": 1432996620000,
            "relative_velocity": {
                "kilometers_per_second": "8.1239570079",
                "kilometers_per_hour": "29246.2452283645",
                "miles_per_hour": "18172.4794309246"
            },
            "miss_distance": {
                "astronomical": "0.0457522236",
                "lunar": "17.7976149804",
                "kilometers": "6844435.198323732",
                "miles": "4252934.8210302216"
            },
            "orbiting_body": "Earth"
        }
    ],
    "orbital_data": {
        "orbit_id": "15",
        "orbit_determination_date": "2017-04-06 08:33:31",
        "first_observation_date": "2015-05-22",
        "last_observation_date": "2015-06-06",
        "data_arc_in_days": 15,
        "observations_used": 53,
        "orbit_uncertainty": "8",
        "minimum_orbit_intersection": ".0332365",
        "jupiter_tisserand_invariant": "3.384",
        "epoch_osculation": "2457167.5",
        "eccentricity": ".54354962818802",
        "semi_major_axis": "2.279400127514644",
        "inclination": "7.64964303668284",
        "ascending_node_longitude": "235.1211326621039",
        "orbital_period": "1256.982638464709",
        "perihelion_distance": "1.040433035712334",
        "perihelion_argument": "12.0018974127377",
        "aphelion_distance": "3.518367219316954",
        "perihelion_time": "2457172.778928463128",
        "mean_anomaly": "358.4881141643712",
        "mean_motion": ".2864001371090596",
        "equinox": "J2000",
        "orbit_class": {
            "orbit_class_type": "AMO",
            "orbit_class_description": "Near-Earth asteroid orbits similar to that of 1221 Amor",
            "orbit_class_range": "1.017 AU < q (perihelion) < 1.3 AU"
        }
    },
    "is_sentry_object": false
}